[
  {
    "OBJECT_NAME": "STARLINK-32114",
    "OBJECT_ID": "24132K",
    "EPOCH": "2025-11-11T04:38:31.080192",
    "MEAN_MOTION": 15.30195704,
    "ECCENTRICITY": 0.0001171,
    "INCLINATION": 53.1608,
    "RA_OF_ASC_NODE": 243.147,
    "ARG_OF_PERICENTER": 96.9786,
    "MEAN_ANOMALY": 263.1348,
    "EPHEMERIS_TYPE": 0,
    "CLASSIFICATION_TYPE": "U",
    "NORAD_CAT_ID": 60287,
    "ELEMENT_SET_NO": 999,
    "REV_AT_EPOCH": 7341,
    "BSTAR": 2.2454e-05,
    "MEAN_MOTION_DOT": 3.06e-06,
    "MEAN_MOTION_DDOT": 0.0,
    "TLE_LINE1": "1 60287U 24132K   25315.19341528  .00000306  00000+0  22454-4 0  9993",
    "TLE_LINE2": "2 60287  53.1608 243.1470 0001171  96.9786 263.1348 15.30195704 73411",
    "COMMENT": "Grouped by shell and plane from TLE"
  },
  {
    "OBJECT_NAME": "STARLINK-31997",
    "OBJECT_ID": "24132L",
    "EPOCH": "2025-11-11T04:47:28.012128",
    "MEAN_MOTION": 15.301993,
    "ECCENTRICITY": 0.0001363,
    "INCLINATION": 53.161,
    "RA_OF_ASC_NODE": 242.4758,
    "ARG_OF_PERICENTER": 75.1725,
    "MEAN_ANOMALY": 284.9427,
    "EPHEMERIS_TYPE": 0,
    "CLASSIFICATION_TYPE": "U",
    "NORAD_CAT_ID": 60288,
    "ELEMENT_SET_NO": 999,
    "REV_AT_EPOCH": 7342,
    "BSTAR": 6.276199999999999e-05,
    "MEAN_MOTION_DOT": 1.5e-05,
    "MEAN_MOTION_DDOT": 0.0,
    "TLE_LINE1": "1 60288U 24132L   25315.19962977  .00001500  00000+0  62762-4 0  9994",
    "TLE_LINE2": "2 60288  53.1610 242.4758 0001363  75.1725 284.9427 15.30199300 73427",
    "COMMENT": "Grouped by shell and plane from TLE"
  },
  {
    "OBJECT_NAME": "STARLINK-32000",
    "OBJECT_ID": "24132M",
    "EPOCH": "2025-11-11T05:48:15.166080",
    "MEAN_MOTION": 15.30203652,
    "ECCENTRICITY": 0.0001076,
    "INCLINATION": 53.1605,
    "RA_OF_ASC_NODE": 242.7425,
    "ARG_OF_PERICENTER": 96.0838,
    "MEAN_ANOMALY": 264.0286,
    "EPHEMERIS_TYPE": 0,
    "CLASSIFICATION_TYPE": "U",
    "NORAD_CAT_ID": 60289,
    "ELEMENT_SET_NO": 999,
    "REV_AT_EPOCH": 7342,
    "BSTAR": 5.9175e-05,
    "MEAN_MOTION_DOT": 1.394e-05,
    "MEAN_MOTION_DDOT": 0.0,
    "TLE_LINE1": "1 60289U 24132M   25315.24184220  .00001394  00000+0  59175-4 0  9993",
    "TLE_LINE2": "2 60289  53.1605 242.7425 0001076  96.0838 264.0286 15.30203652 73422",
    "COMMENT": "Grouped by shell and plane from TLE"
  },
  {
    "OBJECT_NAME": "STARLINK-32141",
    "OBJECT_ID": "24132N",
    "EPOCH": "2025-11-11T05:25:27.492096",
    "MEAN_MOTION": 15.30207923,
    "ECCENTRICITY": 0.0001331,
    "INCLINATION": 53.1601,
    "RA_OF_ASC_NODE": 242.6424,
    "ARG_OF_PERICENTER": 75.4884,
    "MEAN_ANOMALY": 284.6265,
    "EPHEMERIS_TYPE": 0,
    "CLASSIFICATION_TYPE": "U",
    "NORAD_CAT_ID": 60290,
    "ELEMENT_SET_NO": 999,
    "REV_AT_EPOCH": 7342,
    "BSTAR": 7.1159e-05,
    "MEAN_MOTION_DOT": 1.749e-05,
    "MEAN_MOTION_DDOT": 0.0,
    "TLE_LINE1": "1 60290U 24132N   25315.22601264  .00001749  00000+0  71159-4 0  9995",
    "TLE_LINE2": "2 60290  53.1601 242.6424 0001331  75.4884 284.6265 15.30207923 73424",
    "COMMENT": "Grouped by shell and plane from TLE"
  },
  {
    "OBJECT_NAME": "STARLINK-32142",
    "OBJECT_ID": "24132P",
    "EPOCH": "2025-11-11T01:46:58.358784",
    "MEAN_MOTION": 15.30193675,
    "ECCENTRICITY": 0.0001393,
    "INCLINATION": 53.1612,
    "RA_OF_ASC_NODE": 243.1161,
    "ARG_OF_PERICENTER": 77.7776,
    "MEAN_ANOMALY": 282.338,
    "EPHEMERIS_TYPE": 0,
    "CLASSIFICATION_TYPE": "U",
    "NORAD_CAT_ID": 60291,
    "ELEMENT_SET_NO": 999,
    "REV_AT_EPOCH": 7340,
    "BSTAR": 6.8791e-05,
    "MEAN_MOTION_DOT": 1.678e-05,
    "MEAN_MOTION_DDOT": 0.0,
    "TLE_LINE1": "1 60291U 24132P   25315.07428656  .00001678  00000+0  68791-4 0  9990",
    "TLE_LINE2": "2 60291  53.1612 243.1161 0001393  77.7776 282.3380 15.30193675 73403",
    "COMMENT": "Grouped by shell and plane from TLE"
  },
  {
    "OBJECT_NAME": "STARLINK-32149",
    "OBJECT_ID": "24132Q",
    "EPOCH": "2025-11-11T05:52:49.070496",
    "MEAN_MOTION": 15.30201941,
    "ECCENTRICITY": 0.0001168,
    "INCLINATION": 53.1613,
    "RA_OF_ASC_NODE": 242.7626,
    "ARG_OF_PERICENTER": 93.1653,
    "MEAN_ANOMALY": 266.9482,
    "EPHEMERIS_TYPE": 0,
    "CLASSIFICATION_TYPE": "U",
    "NORAD_CAT_ID": 60292,
    "ELEMENT_SET_NO": 999,
    "REV_AT_EPOCH": 7342,
    "BSTAR": 0.0001168,
    "MEAN_MOTION_DOT": 3.102e-05,
    "MEAN_MOTION_DDOT": 0.0,
    "TLE_LINE1": "1 60292U 24132Q   25315.24501239  .00003102  00000+0  11680-3 0  9997",
    "TLE_LINE2": "2 60292  53.1613 242.7626 0001168  93.1653 266.9482 15.30201941 73421",
    "COMMENT": "Grouped by shell and plane from TLE"
  },
  {
    "OBJECT_NAME": "STARLINK-32159",
    "OBJECT_ID": "24132R",
    "EPOCH": "2025-11-11T04:52:01.860384",
    "MEAN_MOTION": 15.30194747,
    "ECCENTRICITY": 0.0001409,
    "INCLINATION": 53.1612,
    "RA_OF_ASC_NODE": 242.492,
    "ARG_OF_PERICENTER": 93.7787,
    "MEAN_ANOMALY": 266.3375,
    "EPHEMERIS_TYPE": 0,
    "CLASSIFICATION_TYPE": "U",
    "NORAD_CAT_ID": 60293,
    "ELEMENT_SET_NO": 999,
    "REV_AT_EPOCH": 7342,
    "BSTAR": 5.2999e-05,
    "MEAN_MOTION_DOT": 1.21e-05,
    "MEAN_MOTION_DDOT": 0.0,
    "TLE_LINE1": "1 60293U 24132R   25315.20279931  .00001210  00000+0  52999-4 0  9992",
    "TLE_LINE2": "2 60293  53.1612 242.4920 0001409  93.7787 266.3375 15.30194747 73427",
    "COMMENT": "Grouped by shell and plane from TLE"
  },
  {
    "OBJECT_NAME": "STARLINK-32150",
    "OBJECT_ID": "24132S",
    "EPOCH": "2025-11-11T04:23:19.557600",
    "MEAN_MOTION": 15.30208821,
    "ECCENTRICITY": 0.0001499,
    "INCLINATION": 53.1604,
    "RA_OF_ASC_NODE": 243.0862,
    "ARG_OF_PERICENTER": 77.8811,
    "MEAN_ANOMALY": 282.2358,
    "EPHEMERIS_TYPE": 0,
    "CLASSIFICATION_TYPE": "U",
    "NORAD_CAT_ID": 60294,
    "ELEMENT_SET_NO": 999,
    "REV_AT_EPOCH": 7341,
    "BSTAR": 0.00015422,
    "MEAN_MOTION_DOT": 4.212e-05,
    "MEAN_MOTION_DDOT": 0.0,
    "TLE_LINE1": "1 60294U 24132S   25315.18286525  .00004212  00000+0  15422-3 0  9991",
    "TLE_LINE2": "2 60294  53.1604 243.0862 0001499  77.8811 282.2358 15.30208821 73417",
    "COMMENT": "Grouped by shell and plane from TLE"
  },
  {
    "OBJECT_NAME": "STARLINK-32126",
    "OBJECT_ID": "24132T",
    "EPOCH": "2025-11-11T04:41:32.826912",
    "MEAN_MOTION": 15.30198543,
    "ECCENTRICITY": 0.0001297,
    "INCLINATION": 53.1606,
    "RA_OF_ASC_NODE": 243.1593,
    "ARG_OF_PERICENTER": 100.4202,
    "MEAN_ANOMALY": 259.6945,
    "EPHEMERIS_TYPE": 0,
    "CLASSIFICATION_TYPE": "U",
    "NORAD_CAT_ID": 60295,
    "ELEMENT_SET_NO": 999,
    "REV_AT_EPOCH": 7341,
    "BSTAR": 9.904500000000001e-05,
    "MEAN_MOTION_DOT": 2.575e-05,
    "MEAN_MOTION_DDOT": 0.0,
    "TLE_LINE1": "1 60295U 24132T   25315.19551883  .00002575  00000+0  99045-4 0  9999",
    "TLE_LINE2": "2 60295  53.1606 243.1593 0001297 100.4202 259.6945 15.30198543 73414",
    "COMMENT": "Grouped by shell and plane from TLE"
  },
  {
    "OBJECT_NAME": "STARLINK-32143",
    "OBJECT_ID": "24132U",
    "EPOCH": "2025-11-11T04:27:52.872768",
    "MEAN_MOTION": 15.30195559,
    "ECCENTRICITY": 0.000132,
    "INCLINATION": 53.1617,
    "RA_OF_ASC_NODE": 243.1058,
    "ARG_OF_PERICENTER": 95.7703,
    "MEAN_ANOMALY": 264.3449,
    "EPHEMERIS_TYPE": 0,
    "CLASSIFICATION_TYPE": "U",
    "NORAD_CAT_ID": 60296,
    "ELEMENT_SET_NO": 999,
    "REV_AT_EPOCH": 7341,
    "BSTAR": 5.5924e-05,
    "MEAN_MOTION_DOT": 1.297e-05,
    "MEAN_MOTION_DDOT": 0.0,
    "TLE_LINE1": "1 60296U 24132U   25315.18602862  .00001297  00000+0  55924-4 0  9991",
    "TLE_LINE2": "2 60296  53.1617 243.1058 0001320  95.7703 264.3449 15.30195559 73418",
    "COMMENT": "Grouped by shell and plane from TLE"
  },
  {
    "OBJECT_NAME": "STARLINK-32034",
    "OBJECT_ID": "24132V",
    "EPOCH": "2025-11-11T05:42:10.801728",
    "MEAN_MOTION": 15.30223932,
    "ECCENTRICITY": 0.0001128,
    "INCLINATION": 53.1584,
    "RA_OF_ASC_NODE": 242.7153,
    "ARG_OF_PERICENTER": 84.3672,
    "MEAN_ANOMALY": 275.7458,
    "EPHEMERIS_TYPE": 0,
    "CLASSIFICATION_TYPE": "U",
    "NORAD_CAT_ID": 60297,
    "ELEMENT_SET_NO": 999,
    "REV_AT_EPOCH": 7342,
    "BSTAR": 0.00023372,
    "MEAN_MOTION_DOT": 6.574e-05,
    "MEAN_MOTION_DDOT": 0.0,
    "TLE_LINE1": "1 60297U 24132V   25315.23762502  .00006574  00000+0  23372-3 0  9990",
    "TLE_LINE2": "2 60297  53.1584 242.7153 0001128  84.3672 275.7458 15.30223932 73422",
    "COMMENT": "Grouped by shell and plane from TLE"
  },
  {
    "OBJECT_NAME": "STARLINK-32124",
    "OBJECT_ID": "24132W",
    "EPOCH": "2025-11-11T04:26:21.887520",
    "MEAN_MOTION": 15.30210895,
    "ECCENTRICITY": 0.0001226,
    "INCLINATION": 53.1591,
    "RA_OF_ASC_NODE": 243.099,
    "ARG_OF_PERICENTER": 88.003,
    "MEAN_ANOMALY": 272.1111,
    "EPHEMERIS_TYPE": 0,
    "CLASSIFICATION_TYPE": "U",
    "NORAD_CAT_ID": 60298,
    "ELEMENT_SET_NO": 999,
    "REV_AT_EPOCH": 7341,
    "BSTAR": 0.00024479,
    "MEAN_MOTION_DOT": 6.9e-05,
    "MEAN_MOTION_DDOT": 0.0,
    "TLE_LINE1": "1 60298U 24132W   25315.18497555  .00006900  00000+0  24479-3 0  9990",
    "TLE_LINE2": "2 60298  53.1591 243.0990 0001226  88.0030 272.1111 15.30210895 73412",
    "COMMENT": "Grouped by shell and plane from TLE"
  },
  {
    "OBJECT_NAME": "STARLINK-32134",
    "OBJECT_ID": "24132Y",
    "EPOCH": "2025-11-11T05:28:29.875584",
    "MEAN_MOTION": 15.30204494,
    "ECCENTRICITY": 0.0001172,
    "INCLINATION": 53.1613,
    "RA_OF_ASC_NODE": 242.654,
    "ARG_OF_PERICENTER": 72.429,
    "MEAN_ANOMALY": 287.6839,
    "EPHEMERIS_TYPE": 0,
    "CLASSIFICATION_TYPE": "U",
    "NORAD_CAT_ID": 60300,
    "ELEMENT_SET_NO": 999,
    "REV_AT_EPOCH": 7342,
    "BSTAR": 9.0638e-05,
    "MEAN_MOTION_DOT": 2.327e-05,
    "MEAN_MOTION_DDOT": 0.0,
    "TLE_LINE1": "1 60300U 24132Y   25315.22812356  .00002327  00000+0  90638-4 0  9999",
    "TLE_LINE2": "2 60300  53.1613 242.6540 0001172  72.4290 287.6839 15.30204494 73429",
    "COMMENT": "Grouped by shell and plane from TLE"
  }
]